GPS_BIIRM-3-PRN-12
1 29601U 06052A   23124.16686185 -.00000016  00000+0  00000+0 0  9990
2 29601  55.3294 259.2633 0086376  77.9882 282.9479  2.00570584120543
